{
  "type": "FeatureCollection",
  "features": [
    {
      "type": "Feature",
      "properties": {
        "norad_id": 66554,
        "name": "GLOBAL-33",
        "group": "last-30-days",
        "lat": 15.991078844415073,
        "lon": 94.78602845732904,
        "alt_km": 465.3400895361474,
        "timestamp": "2025-12-09T09:46:46.422212+00:00",
        "meta_object_name": "GLOBAL-33",
        "meta_object_id": "2025-267A",
        "meta_epoch": "2025-12-08T13:19:37.894080",
        "meta_mean_motion": 15.31498164,
        "meta_eccentricity": 0.00047931,
        "meta_inclination": 42.0201,
        "meta_ra_of_asc_node": 81.1482,
        "meta_arg_of_pericenter": 22.7031,
        "meta_mean_anomaly": 337.4018,
        "meta_ephemeris_type": 0,
        "meta_classification_type": "U",
        "meta_norad_cat_id": 66554,
        "meta_element_set_no": 999,
        "meta_rev_at_epoch": 276,
        "meta_bstar": 0.00059832068,
        "meta_mean_motion_dot": 0.00018392,
        "meta_mean_motion_ddot": 0,
        "tle_line1": "1 66554U 25267A   25342.55529970  .00018392  00000+0  59832-3 0  9998",
        "tle_line2": "2 66554  42.0201  81.1482 0004793  22.7031 337.4018 15.31498164  2762"
      },
      "geometry": {
        "type": "Point",
        "coordinates": [
          94.78602845732904,
          15.991078844415073
        ]
      }
    },
    {
      "type": "Feature",
      "properties": {
        "norad_id": 66555,
        "name": "ELECTRON KICK STAGE R/B",
        "group": "last-30-days",
        "lat": 40.58901997855596,
        "lon": 148.19621033328346,
        "alt_km": 458.59762426916313,
        "timestamp": "2025-12-09T09:46:46.422227+00:00",
        "meta_object_name": "ELECTRON KICK STAGE R/B",
        "meta_object_id": "2025-267B",
        "meta_epoch": "2025-12-08T13:06:52.531776",
        "meta_mean_motion": 15.32503128,
        "meta_eccentricity": 0.00068692,
        "meta_inclination": 42.0196,
        "meta_ra_of_asc_node": 81.083,
        "meta_arg_of_pericenter": 20.9024,
        "meta_mean_anomaly": 339.2093,
        "meta_ephemeris_type": 0,
        "meta_classification_type": "U",
        "meta_norad_cat_id": 66555,
        "meta_element_set_no": 999,
        "meta_rev_at_epoch": 276,
        "meta_bstar": 0.00096183495,
        "meta_mean_motion_dot": 0.00030739,
        "meta_mean_motion_ddot": 0,
        "tle_line1": "1 66555U 25267B   25342.54644134  .00030739  00000+0  96183-3 0  9997",
        "tle_line2": "2 66555  42.0196  81.0830 0006869  20.9024 339.2093 15.32503128  2761"
      },
      "geometry": {
        "type": "Point",
        "coordinates": [
          148.19621033328346,
          40.58901997855596
        ]
      }
    },
    {
      "type": "Feature",
      "properties": {
        "norad_id": 66557,
        "name": "STARLINK-35699",
        "group": "last-30-days",
        "lat": -10.50288020710486,
        "lon": -27.839830286525192,
        "alt_km": 416.18945673943836,
        "timestamp": "2025-12-09T09:46:46.422240+00:00",
        "meta_object_name": "STARLINK-35699",
        "meta_object_id": "2025-268A",
        "meta_epoch": "2025-12-09T04:00:01.998720",
        "meta_mean_motion": 15.50489822,
        "meta_eccentricity": 0.0001094,
        "meta_inclination": 43.0007,
        "meta_ra_of_asc_node": 142.0935,
        "meta_arg_of_pericenter": 278.9,
        "meta_mean_anomaly": 10.872,
        "meta_ephemeris_type": 0,
        "meta_classification_type": "U",
        "meta_norad_cat_id": 66557,
        "meta_element_set_no": 999,
        "meta_rev_at_epoch": 409,
        "meta_bstar": 0.00082154,
        "meta_mean_motion_dot": 0.00047996,
        "meta_mean_motion_ddot": 0,
        "tle_line1": "1 66557U 25268A   25343.16668980  .00047996  00000+0  82154-3 0  9990",
        "tle_line2": "2 66557  43.0007 142.0935 0001094 278.9000  10.8720 15.50489822  4094"
      },
      "geometry": {
        "type": "Point",
        "coordinates": [
          -27.839830286525192,
          -10.50288020710486
        ]
      }
    },
    {
      "type": "Feature",
      "properties": {
        "norad_id": 66558,
        "name": "STARLINK-35695",
        "group": "last-30-days",
        "lat": -11.77814664223135,
        "lon": -26.39019548322494,
        "alt_km": 416.3241104923627,
        "timestamp": "2025-12-09T09:46:46.422251+00:00",
        "meta_object_name": "STARLINK-35695",
        "meta_object_id": "2025-268B",
        "meta_epoch": "2025-12-09T04:00:01.998720",
        "meta_mean_motion": 15.50485928,
        "meta_eccentricity": 0.0001202,
        "meta_inclination": 43.0005,
        "meta_ra_of_asc_node": 142.0885,
        "meta_arg_of_pericenter": 280.2467,
        "meta_mean_anomaly": 11.4447,
        "meta_ephemeris_type": 0,
        "meta_classification_type": "U",
        "meta_norad_cat_id": 66558,
        "meta_element_set_no": 999,
        "meta_rev_at_epoch": 409,
        "meta_bstar": 0.00080216,
        "meta_mean_motion_dot": 0.00046843,
        "meta_mean_motion_ddot": 0,
        "tle_line1": "1 66558U 25268B   25343.16668980  .00046843  00000+0  80216-3 0  9998",
        "tle_line2": "2 66558  43.0005 142.0885 0001202 280.2467  11.4447 15.50485928  4097"
      },
      "geometry": {
        "type": "Point",
        "coordinates": [
          -26.39019548322494,
          -11.77814664223135
        ]
      }
    },
    {
      "type": "Feature",
      "properties": {
        "norad_id": 66559,
        "name": "STARLINK-35419",
        "group": "last-30-days",
        "lat": -13.077669957524613,
        "lon": -24.889173079850835,
        "alt_km": 415.8915873577216,
        "timestamp": "2025-12-09T09:46:46.422264+00:00",
        "meta_object_name": "STARLINK-35419",
        "meta_object_id": "2025-268C",
        "meta_epoch": "2025-12-09T04:00:01.998720",
        "meta_mean_motion": 15.50602746,
        "meta_eccentricity": 0.0002008,
        "meta_inclination": 43.0007,
        "meta_ra_of_asc_node": 142.0847,
        "meta_arg_of_pericenter": 265.3884,
        "meta_mean_anomaly": 28.2024,
        "meta_ephemeris_type": 0,
        "meta_classification_type": "U",
        "meta_norad_cat_id": 66559,
        "meta_element_set_no": 999,
        "meta_rev_at_epoch": 409,
        "meta_bstar": -0.00171,
        "meta_mean_motion_dot": -0.00099482,
        "meta_mean_motion_ddot": 0,
        "tle_line1": "1 66559U 25268C   25343.16668980 -.00099482  00000+0 -17100-2 0  9999",
        "tle_line2": "2 66559  43.0007 142.0847 0002008 265.3884  28.2024 15.50602746  4096"
      },
      "geometry": {
        "type": "Point",
        "coordinates": [
          -24.889173079850835,
          -13.077669957524613
        ]
      }
    },
    {
      "type": "Feature",
      "properties": {
        "norad_id": 66560,
        "name": "STARLINK-35411",
        "group": "last-30-days",
        "lat": -14.338018914929208,
        "lon": -23.408900061591815,
        "alt_km": 416.00796359819833,
        "timestamp": "2025-12-09T09:46:46.422275+00:00",
        "meta_object_name": "STARLINK-35411",
        "meta_object_id": "2025-268D",
        "meta_epoch": "2025-12-09T04:00:01.998720",
        "meta_mean_motion": 15.50601045,
        "meta_eccentricity": 0.0002025,
        "meta_inclination": 43.0005,
        "meta_ra_of_asc_node": 142.08,
        "meta_arg_of_pericenter": 267.0064,
        "meta_mean_anomaly": 28.5018,
        "meta_ephemeris_type": 0,
        "meta_classification_type": "U",
        "meta_norad_cat_id": 66560,
        "meta_element_set_no": 999,
        "meta_rev_at_epoch": 409,
        "meta_bstar": -0.0016548,
        "meta_mean_motion_dot": -0.0009632,
        "meta_mean_motion_ddot": 0,
        "tle_line1": "1 66560U 25268D   25343.16668980 -.00096320  00000+0 -16548-2 0  9994",
        "tle_line2": "2 66560  43.0005 142.0800 0002025 267.0064  28.5018 15.50601045  4090"
      },
      "geometry": {
        "type": "Point",
        "coordinates": [
          -23.408900061591815,
          -14.338018914929208
        ]
      }
    },
    {
      "type": "Feature",
      "properties": {
        "norad_id": 66561,
        "name": "STARLINK-35305",
        "group": "last-30-days",
        "lat": -16.831485446605758,
        "lon": -20.395226333116717,
        "alt_km": 416.16679383973496,
        "timestamp": "2025-12-09T09:46:46.422285+00:00",
        "meta_object_name": "STARLINK-35305",
        "meta_object_id": "2025-268E",
        "meta_epoch": "2025-12-09T04:00:01.998720",
        "meta_mean_motion": 15.50601242,
        "meta_eccentricity": 0.0001982,
        "meta_inclination": 43.0007,
        "meta_ra_of_asc_node": 142.0701,
        "meta_arg_of_pericenter": 266.4884,
        "meta_mean_anomaly": 32.8543,
        "meta_ephemeris_type": 0,
        "meta_classification_type": "U",
        "meta_norad_cat_id": 66561,
        "meta_element_set_no": 999,
        "meta_rev_at_epoch": 404,
        "meta_bstar": -0.0016637,
        "meta_mean_motion_dot": -0.00096826,
        "meta_mean_motion_ddot": 0,
        "tle_line1": "1 66561U 25268E   25343.16668980 -.00096826  00000+0 -16637-2 0  9995",
        "tle_line2": "2 66561  43.0007 142.0701 0001982 266.4884  32.8543 15.50601242  4042"
      },
      "geometry": {
        "type": "Point",
        "coordinates": [
          -20.395226333116717,
          -16.831485446605758
        ]
      }
    }
  ]
}